CCSDS_OMM_VERS = 2.0
CREATION_DATE  = 
ORIGINATOR     = 

OBJECT_NAME    = CYGNUS NG-23
OBJECT_ID      = 2025-208A
CENTER_NAME    = EARTH
REF_FRAME      = TEME
TIME_SYSTEM    = UTC
MEAN_ELEMENT_THEORY = SGP/SGP4

EPOCH          = 2026-01-04T05:49:03.456768
MEAN_MOTION    = 15.49083682
ECCENTRICITY   = .00075668
INCLINATION    = 51.6326
RA_OF_ASC_NODE = 31.0546
ARG_OF_PERICENTER = 338.8096
MEAN_ANOMALY   = 21.2578

EPHEMERIS_TYPE = 0
CLASSIFICATION_TYPE = U
NORAD_CAT_ID   = 65616
ELEMENT_SET_NO = 999
REV_AT_EPOCH   = 22
BSTAR          = .19893818E-3
MEAN_MOTION_DOT = .10563E-3
MEAN_MOTION_DDOT = 0

CCSDS_OMM_VERS = 2.0
CREATION_DATE  = 
ORIGINATOR     = 

OBJECT_NAME    = DRAGONFLY
OBJECT_ID      = 1998-067XH
CENTER_NAME    = EARTH
REF_FRAME      = TEME
TIME_SYSTEM    = UTC
MEAN_ELEMENT_THEORY = SGP/SGP4

EPOCH          = 2026-01-04T07:24:41.081184
MEAN_MOTION    = 15.82138824
ECCENTRICITY   = .00086631
INCLINATION    = 51.6225
RA_OF_ASC_NODE = 19.4510
ARG_OF_PERICENTER = 47.6135
MEAN_ANOMALY   = 312.5600

EPHEMERIS_TYPE = 0
CLASSIFICATION_TYPE = U
NORAD_CAT_ID   = 65729
ELEMENT_SET_NO = 999
REV_AT_EPOCH   = 1672
BSTAR          = .14452388E-2
MEAN_MOTION_DOT = .314171E-2
MEAN_MOTION_DDOT = 0

CCSDS_OMM_VERS = 2.0
CREATION_DATE  = 
ORIGINATOR     = 

OBJECT_NAME    = 1998-067XK
OBJECT_ID      = 1998-067XK
CENTER_NAME    = EARTH
REF_FRAME      = TEME
TIME_SYSTEM    = UTC
MEAN_ELEMENT_THEORY = SGP/SGP4

EPOCH          = 2026-01-04T07:04:13.363968
MEAN_MOTION    = 15.71025189
ECCENTRICITY   = .00053262
INCLINATION    = 51.6285
RA_OF_ASC_NODE = 22.4025
ARG_OF_PERICENTER = 22.3820
MEAN_ANOMALY   = 337.7409

EPHEMERIS_TYPE = 0
CLASSIFICATION_TYPE = U
NORAD_CAT_ID   = 65731
ELEMENT_SET_NO = 999
REV_AT_EPOCH   = 1668
BSTAR          = .10273129E-2
MEAN_MOTION_DOT = .133296E-2
MEAN_MOTION_DDOT = 0

CCSDS_OMM_VERS = 2.0
CREATION_DATE  = 
ORIGINATOR     = 

OBJECT_NAME    = RSP-03
OBJECT_ID      = 1998-067XL
CENTER_NAME    = EARTH
REF_FRAME      = TEME
TIME_SYSTEM    = UTC
MEAN_ELEMENT_THEORY = SGP/SGP4

EPOCH          = 2026-01-04T07:26:05.752320
MEAN_MOTION    = 15.75909874
ECCENTRICITY   = .00063891
INCLINATION    = 51.6255
RA_OF_ASC_NODE = 20.9817
ARG_OF_PERICENTER = 29.5092
MEAN_ANOMALY   = 330.6267

EPHEMERIS_TYPE = 0
CLASSIFICATION_TYPE = U
NORAD_CAT_ID   = 65732
ELEMENT_SET_NO = 999
REV_AT_EPOCH   = 1671
BSTAR          = .12515972E-2
MEAN_MOTION_DOT = .20224E-2
MEAN_MOTION_DDOT = 0

CCSDS_OMM_VERS = 2.0
CREATION_DATE  = 
ORIGINATOR     = 

OBJECT_NAME    = GHS-01
OBJECT_ID      = 1998-067XM
CENTER_NAME    = EARTH
REF_FRAME      = TEME
TIME_SYSTEM    = UTC
MEAN_ELEMENT_THEORY = SGP/SGP4

EPOCH          = 2026-01-04T06:16:47.960544
MEAN_MOTION    = 15.88983030
ECCENTRICITY   = .00095198
INCLINATION    = 51.6250
RA_OF_ASC_NODE = 18.3901
ARG_OF_PERICENTER = 51.8673
MEAN_ANOMALY   = 308.3189

EPHEMERIS_TYPE = 0
CLASSIFICATION_TYPE = U
NORAD_CAT_ID   = 65733
ELEMENT_SET_NO = 999
REV_AT_EPOCH   = 1674
BSTAR          = .15760619E-2
MEAN_MOTION_DOT = .45829E-2
MEAN_MOTION_DDOT = .89113194E-4

CCSDS_OMM_VERS = 2.0
CREATION_DATE  = 
ORIGINATOR     = 

OBJECT_NAME    = YOTSUBA-KULOVER
OBJECT_ID      = 1998-067XN
CENTER_NAME    = EARTH
REF_FRAME      = TEME
TIME_SYSTEM    = UTC
MEAN_ELEMENT_THEORY = SGP/SGP4

EPOCH          = 2026-01-04T07:26:55.535136
MEAN_MOTION    = 15.63089876
ECCENTRICITY   = .00036107
INCLINATION    = 51.6291
RA_OF_ASC_NODE = 26.2625
ARG_OF_PERICENTER = 51.9895
MEAN_ANOMALY   = 308.1425

EPHEMERIS_TYPE = 0
CLASSIFICATION_TYPE = U
NORAD_CAT_ID   = 65941
ELEMENT_SET_NO = 999
REV_AT_EPOCH   = 1338
BSTAR          = .96586098E-3
MEAN_MOTION_DOT = .90213E-3
MEAN_MOTION_DDOT = 0

CCSDS_OMM_VERS = 2.0
CREATION_DATE  = 
ORIGINATOR     = 

OBJECT_NAME    = BOTAN
OBJECT_ID      = 1998-067XP
CENTER_NAME    = EARTH
REF_FRAME      = TEME
TIME_SYSTEM    = UTC
MEAN_ELEMENT_THEORY = SGP/SGP4

EPOCH          = 2026-01-04T06:04:20.745696
MEAN_MOTION    = 15.68681274
ECCENTRICITY   = .00044633
INCLINATION    = 51.6274
RA_OF_ASC_NODE = 25.1235
ARG_OF_PERICENTER = 42.1380
MEAN_ANOMALY   = 317.9959

EPHEMERIS_TYPE = 0
CLASSIFICATION_TYPE = U
NORAD_CAT_ID   = 65942
ELEMENT_SET_NO = 999
REV_AT_EPOCH   = 1339
BSTAR          = .12796925E-2
MEAN_MOTION_DOT = .151036E-2
MEAN_MOTION_DDOT = 0

CCSDS_OMM_VERS = 2.0
CREATION_DATE  = 
ORIGINATOR     = 

OBJECT_NAME    = E-KAGAKU-1
OBJECT_ID      = 1998-067XQ
CENTER_NAME    = EARTH
REF_FRAME      = TEME
TIME_SYSTEM    = UTC
MEAN_ELEMENT_THEORY = SGP/SGP4

EPOCH          = 2026-01-03T06:53:41.768736
MEAN_MOTION    = 15.62898821
ECCENTRICITY   = .00021531
INCLINATION    = 51.6300
RA_OF_ASC_NODE = 31.4369
ARG_OF_PERICENTER = 36.8432
MEAN_ANOMALY   = 323.2710

EPHEMERIS_TYPE = 0
CLASSIFICATION_TYPE = U
NORAD_CAT_ID   = 65943
ELEMENT_SET_NO = 999
REV_AT_EPOCH   = 1322
BSTAR          = .11898329E-2
MEAN_MOTION_DOT = .110689E-2
MEAN_MOTION_DDOT = 0

CCSDS_OMM_VERS = 2.0
CREATION_DATE  = 
ORIGINATOR     = 

OBJECT_NAME    = HRC MONOBLOCK CAMERA
OBJECT_ID      = 1998-067XR
CENTER_NAME    = EARTH
REF_FRAME      = TEME
TIME_SYSTEM    = UTC
MEAN_ELEMENT_THEORY = SGP/SGP4

EPOCH          = 2026-01-04T06:33:52.864992
MEAN_MOTION    = 15.55895282
ECCENTRICITY   = .00014458
INCLINATION    = 51.6309
RA_OF_ASC_NODE = 29.0146
ARG_OF_PERICENTER = 306.3902
MEAN_ANOMALY   = 53.6956

EPHEMERIS_TYPE = 0
CLASSIFICATION_TYPE = U
NORAD_CAT_ID   = 66052
ELEMENT_SET_NO = 999
REV_AT_EPOCH   = 1234
BSTAR          = .55892022E-3
MEAN_MOTION_DOT = .39185E-3
MEAN_MOTION_DDOT = 0

CCSDS_OMM_VERS = 2.0
CREATION_DATE  = 
ORIGINATOR     = 

OBJECT_NAME    = HTV-X1
OBJECT_ID      = 2025-241A
CENTER_NAME    = EARTH
REF_FRAME      = TEME
TIME_SYSTEM    = UTC
MEAN_ELEMENT_THEORY = SGP/SGP4

EPOCH          = 2026-01-04T05:49:03.456768
MEAN_MOTION    = 15.49083682
ECCENTRICITY   = .00075668
INCLINATION    = 51.6326
RA_OF_ASC_NODE = 31.0546
ARG_OF_PERICENTER = 338.8096
MEAN_ANOMALY   = 21.2578

EPHEMERIS_TYPE = 0
CLASSIFICATION_TYPE = U
NORAD_CAT_ID   = 66174
ELEMENT_SET_NO = 999
REV_AT_EPOCH   = 51
BSTAR          = .19893818E-3
MEAN_MOTION_DOT = .10563E-3
MEAN_MOTION_DDOT = 0

CCSDS_OMM_VERS = 2.0
CREATION_DATE  = 
ORIGINATOR     = 

OBJECT_NAME    = SZ-21 MODULE
OBJECT_ID      = 2025-246C
CENTER_NAME    = EARTH
REF_FRAME      = TEME
TIME_SYSTEM    = UTC
MEAN_ELEMENT_THEORY = SGP/SGP4

EPOCH          = 2026-01-04T00:42:02.479968
MEAN_MOTION    = 15.63874594
ECCENTRICITY   = .00020547
INCLINATION    = 41.4752
RA_OF_ASC_NODE = 239.9503
ARG_OF_PERICENTER = 34.0017
MEAN_ANOMALY   = 326.0955

EPHEMERIS_TYPE = 0
CLASSIFICATION_TYPE = U
NORAD_CAT_ID   = 66515
ELEMENT_SET_NO = 999
REV_AT_EPOCH   = 793
BSTAR          = .39470566E-3
MEAN_MOTION_DOT = .38002E-3
MEAN_MOTION_DDOT = 0

CCSDS_OMM_VERS = 2.0
CREATION_DATE  = 
ORIGINATOR     = 

OBJECT_NAME    = SHENZHOU-22
OBJECT_ID      = 2025-272A
CENTER_NAME    = EARTH
REF_FRAME      = TEME
TIME_SYSTEM    = UTC
MEAN_ELEMENT_THEORY = SGP/SGP4

EPOCH          = 2026-01-04T03:02:08.917440
MEAN_MOTION    = 15.60161015
ECCENTRICITY   = .0010598
INCLINATION    = 41.4654
RA_OF_ASC_NODE = 240.7044
ARG_OF_PERICENTER = 216.1453
MEAN_ANOMALY   = 143.8670

EPHEMERIS_TYPE = 0
CLASSIFICATION_TYPE = U
NORAD_CAT_ID   = 66645
ELEMENT_SET_NO = 999
REV_AT_EPOCH   = 26749
BSTAR          = .28185644E-3
MEAN_MOTION_DOT = .23377E-3
MEAN_MOTION_DDOT = 0

