CYGNUS NG-23            
1 65616U 25208A   26004.24240112  .00010563  00000+0  19894-3 0  9997
2 65616  51.6326  31.0546 0007566 338.8096  21.2578 15.49083682   224
DRAGONFLY               
1 65729U 98067XH  26004.30880881  .00314171  00000+0  14452-2 0  9991
2 65729  51.6225  19.4510 0008663  47.6135 312.5600 15.82138824 16726
1998-067XK              
1 65731U 98067XK  26004.29459912  .00133296  00000+0  10273-2 0  9993
2 65731  51.6285  22.4025 0005326  22.3820 337.7409 15.71025189 16682
RSP-03                  
1 65732U 98067XL  26004.30978880  .00202240  00000+0  12516-2 0  9994
2 65732  51.6255  20.9817 0006389  29.5092 330.6267 15.75909874 16716
GHS-01                  
1 65733U 98067XM  26004.26166621  .00458290  89113-4  15761-2 0  9992
2 65733  51.6250  18.3901 0009519  51.8673 308.3189 15.88983030 16746
YOTSUBA-KULOVER         
1 65941U 98067XN  26004.31036499  .00090213  00000+0  96586-3 0  9993
2 65941  51.6291  26.2625 0003610  51.9895 308.1425 15.63089876 13382
BOTAN                   
1 65942U 98067XP  26004.25301789  .00151036  00000+0  12797-2 0  9996
2 65942  51.6274  25.1235 0004463  42.1380 317.9959 15.68681274 13393
E-KAGAKU-1              
1 65943U 98067XQ  26003.28728899  .00110689  00000+0  11898-2 0  9994
2 65943  51.6300  31.4369 0002153  36.8432 323.2710 15.62898821 13223
HRC MONOBLOCK CAMERA    
1 66052U 98067XR  26004.27352853  .00039185  00000+0  55892-3 0  9993
2 66052  51.6309  29.0146 0001445 306.3902  53.6956 15.55895282 12348
HTV-X1                  
1 66174U 25241A   26004.24240112  .00010563  00000+0  19894-3 0  9994
2 66174  51.6326  31.0546 0007566 338.8096  21.2578 15.49083682   516
SZ-21 MODULE            
1 66515U 25246C   26004.02919537  .00038002  00000+0  39471-3 0  9999
2 66515  41.4752 239.9503 0002054  34.0017 326.0955 15.63874594  7936
SHENZHOU-22             
1 66645U 25272A   26004.12649210  .00023377  00000+0  28186-3 0  9991
2 66645  41.4654 240.7044 0010598 216.1453 143.8670 15.60161015267492
